start=new Date('2022-08-31T00:00:00.000Z').valueOf();
sats=[{"REF_FRAME":"TEME","TLE_LINE1":"1 46532U 20070A   22242.88548471 -.00000736  00000-0 -30514-4 0  9991","APOAPSIS":"548.494","EPOCH":"2022-08-30T21:15:05.878944","SEMIMAJOR_AXIS":"6925.348","EPHEMERIS_TYPE":"0","GP_ID":"211357254","MEAN_MOTION_DDOT":"0.0000000000000","CENTER_NAME":"EARTH","RA_OF_ASC_NODE":"193.3072","MEAN_ELEMENT_THEORY":"SGP4","ELEMENT_SET_NO":"999","FILE":"3552179","DECAY_DATE":null,"INCLINATION":"53.0549","NORAD_CAT_ID":"46532","BSTAR":"-0.00003051400000","ARG_OF_PERICENTER":"73.1200","PERIOD":"95.592","OBJECT_NAME":"STARLINK-1644","OBJECT_ID":"2020-070A","CLASSIFICATION_TYPE":"U","TLE_LINE2":"2 46532  53.0549 193.3072 0001849  73.1200 286.9992 15.06400039105557","SITE":"AFETR","COUNTRY_CODE":"US","OBJECT_TYPE":"PAYLOAD","MEAN_ANOMALY":"286.9992","RCS_SIZE":"LARGE","LAUNCH_DATE":"2020-10-06","MEAN_MOTION_DOT":"-0.00000736","PERIAPSIS":"545.933","TIME_SYSTEM":"UTC","REV_AT_EPOCH":"10555","MEAN_MOTION":"15.06400039","ECCENTRICITY":"0.00018490"},{"SITE":"AFETR","TLE_LINE2":"2 46533  53.0546 193.2478 0002089  63.7784 296.3419 15.06405260105553","CLASSIFICATION_TYPE":"U","ARG_OF_PERICENTER":"63.7784","PERIOD":"95.592","OBJECT_ID":"2020-070B","OBJECT_NAME":"STARLINK-1648","RCS_SIZE":"LARGE","MEAN_MOTION_DOT":"0.00000515","LAUNCH_DATE":"2020-10-06","PERIAPSIS":"545.751","MEAN_ANOMALY":"296.3419","OBJECT_TYPE":"PAYLOAD","COUNTRY_CODE":"US","REV_AT_EPOCH":"10555","TIME_SYSTEM":"UTC","ECCENTRICITY":"0.00020890","MEAN_MOTION":"15.06405260","TLE_LINE1":"1 46533U 20070B   22242.89653526  .00000515  00000-0  53490-4 0  9992","REF_FRAME":"TEME","SEMIMAJOR_AXIS":"6925.332","EPOCH":"2022-08-30T21:31:00.646464","APOAPSIS":"548.644","RA_OF_ASC_NODE":"193.2478","MEAN_ELEMENT_THEORY":"SGP4","CENTER_NAME":"EARTH","EPHEMERIS_TYPE":"0","GP_ID":"211358506","MEAN_MOTION_DDOT":"0.0000000000000","BSTAR":"0.00005349000000","NORAD_CAT_ID":"46533","INCLINATION":"53.0546","ELEMENT_SET_NO":"999","FILE":"3552179","DECAY_DATE":null},{"COUNTRY_CODE":"US","OBJECT_TYPE":"PAYLOAD","MEAN_ANOMALY":"295.4922","RCS_SIZE":"LARGE","LAUNCH_DATE":"2020-10-06","MEAN_MOTION_DOT":"0.00001255","PERIAPSIS":"545.865","ARG_OF_PERICENTER":"64.6265","PERIOD":"95.592","OBJECT_ID":"2020-070C","OBJECT_NAME":"STARLINK-1659","CLASSIFICATION_TYPE":"U","TLE_LINE2":"2 46534  53.0543 195.7273 0001920  64.6265 295.4922 15.06406155105472","SITE":"AFETR","MEAN_MOTION":"15.06406155","ECCENTRICITY":"0.00019200","TIME_SYSTEM":"UTC","REV_AT_EPOCH":"10547","APOAPSIS":"548.524","EPOCH":"2022-08-30T08:20:09.093408","SEMIMAJOR_AXIS":"6925.330","REF_FRAME":"TEME","TLE_LINE1":"1 46534U 20070C   22242.34732747  .00001255  00000-0  10316-3 0  9997","ELEMENT_SET_NO":"999","DECAY_DATE":null,"FILE":"3551880","INCLINATION":"53.0543","NORAD_CAT_ID":"46534","BSTAR":"0.00010316000000","EPHEMERIS_TYPE":"0","GP_ID":"211327048","MEAN_MOTION_DDOT":"0.0000000000000","CENTER_NAME":"EARTH","MEAN_ELEMENT_THEORY":"SGP4","RA_OF_ASC_NODE":"195.7273"},{"COUNTRY_CODE":"US","OBJECT_TYPE":"PAYLOAD","MEAN_ANOMALY":"283.3576","RCS_SIZE":"LARGE","LAUNCH_DATE":"2020-10-06","MEAN_MOTION_DOT":"0.00000423","PERIAPSIS":"545.992","ARG_OF_PERICENTER":"76.7610","PERIOD":"95.592","OBJECT_NAME":"STARLINK-1663","OBJECT_ID":"2020-070D","CLASSIFICATION_TYPE":"U","TLE_LINE2":"2 46535  53.0549 196.0804 0001763  76.7610 283.3576 15.06400041105453","SITE":"AFETR","MEAN_MOTION":"15.06400041","ECCENTRICITY":"0.00017630","TIME_SYSTEM":"UTC","REV_AT_EPOCH":"10545","APOAPSIS":"548.434","EPOCH":"2022-08-30T06:28:41.913984","SEMIMAJOR_AXIS":"6925.348","REF_FRAME":"TEME","TLE_LINE1":"1 46535U 20070D   22242.26992956  .00000423  00000-0  47269-4 0  9993","ELEMENT_SET_NO":"999","DECAY_DATE":null,"FILE":"3551880","INCLINATION":"53.0549","BSTAR":"0.00004726900000","NORAD_CAT_ID":"46535","EPHEMERIS_TYPE":"0","MEAN_MOTION_DDOT":"0.0000000000000","GP_ID":"211327295","CENTER_NAME":"EARTH","RA_OF_ASC_NODE":"196.0804","MEAN_ELEMENT_THEORY":"SGP4"},{"OBJECT_TYPE":"PAYLOAD","COUNTRY_CODE":"US","PERIAPSIS":"546.169","LAUNCH_DATE":"2020-10-06","MEAN_MOTION_DOT":"-0.00001342","RCS_SIZE":"LARGE","MEAN_ANOMALY":"289.7678","CLASSIFICATION_TYPE":"U","OBJECT_NAME":"STARLINK-1672","OBJECT_ID":"2020-070F","PERIOD":"95.593","ARG_OF_PERICENTER":"70.3477","SITE":"AFETR","TLE_LINE2":"2 46537  53.0560 193.5660 0001540  70.3477 289.7678 15.06392853105548","MEAN_MOTION":"15.06392853","ECCENTRICITY":"0.00015400","TIME_SYSTEM":"UTC","REV_AT_EPOCH":"10554","APOAPSIS":"548.302","SEMIMAJOR_AXIS":"6925.370","EPOCH":"2022-08-30T19:50:10.628160","REF_FRAME":"TEME","TLE_LINE1":"1 46537U 20070F   22242.82651190 -.00001342  00000-0 -71236-4 0  9993","FILE":"3552179","DECAY_DATE":null,"ELEMENT_SET_NO":"999","NORAD_CAT_ID":"46537","BSTAR":"-0.00007123600000","INCLINATION":"53.0560","CENTER_NAME":"EARTH","GP_ID":"211357755","MEAN_MOTION_DDOT":"0.0000000000000","EPHEMERIS_TYPE":"0","MEAN_ELEMENT_THEORY":"SGP4","RA_OF_ASC_NODE":"193.5660"},{"REV_AT_EPOCH":"10543","TIME_SYSTEM":"UTC","ECCENTRICITY":"0.00018080","MEAN_MOTION":"15.06393674","TLE_LINE2":"2 46538  53.0551 196.6460 0001808  73.0851 287.0336 15.06393674105436","SITE":"AFETR","PERIOD":"95.593","ARG_OF_PERICENTER":"73.0851","OBJECT_ID":"2020-070G","OBJECT_NAME":"STARLINK-1678","CLASSIFICATION_TYPE":"U","MEAN_ANOMALY":"287.0336","RCS_SIZE":"LARGE","LAUNCH_DATE":"2020-10-06","PERIAPSIS":"545.981","MEAN_MOTION_DOT":"-0.00001866","COUNTRY_CODE":"US","OBJECT_TYPE":"PAYLOAD","RA_OF_ASC_NODE":"196.6460","MEAN_ELEMENT_THEORY":"SGP4","EPHEMERIS_TYPE":"0","GP_ID":"211326302","MEAN_MOTION_DDOT":"0.0000000000000","CENTER_NAME":"EARTH","INCLINATION":"53.0551","BSTAR":"-0.00010643000000","NORAD_CAT_ID":"46538","ELEMENT_SET_NO":"999","DECAY_DATE":null,"FILE":"3551880","TLE_LINE1":"1 46538U 20070G   22242.14093202 -.00001866  00000-0 -10643-3 0  9998","REF_FRAME":"TEME","EPOCH":"2022-08-30T03:22:56.526528","SEMIMAJOR_AXIS":"6925.368","APOAPSIS":"548.485"},{"ECCENTRICITY":"0.00016530","MEAN_MOTION":"15.06391904","REV_AT_EPOCH":"10582","TIME_SYSTEM":"UTC","MEAN_ANOMALY":"286.9895","RCS_SIZE":"LARGE","MEAN_MOTION_DOT":"-0.00000946","LAUNCH_DATE":"2020-10-06","PERIAPSIS":"546.094","COUNTRY_CODE":"US","OBJECT_TYPE":"PAYLOAD","TLE_LINE2":"2 46541  53.0542 173.4772 0001653  73.1275 286.9895 15.06391904105823","SITE":"AFETR","PERIOD":"95.593","ARG_OF_PERICENTER":"73.1275","OBJECT_ID":"2020-070K","OBJECT_NAME":"STARLINK-1687","CLASSIFICATION_TYPE":"U","INCLINATION":"53.0542","BSTAR":"-0.00004460300000","NORAD_CAT_ID":"46541","ELEMENT_SET_NO":"999","DECAY_DATE":null,"FILE":"3552179","RA_OF_ASC_NODE":"173.4772","MEAN_ELEMENT_THEORY":"SGP4","EPHEMERIS_TYPE":"0","GP_ID":"211358757","MEAN_MOTION_DDOT":"0.0000000000000","CENTER_NAME":"EARTH","EPOCH":"2022-08-30T20:24:40.989888","SEMIMAJOR_AXIS":"6925.373","APOAPSIS":"548.383","TLE_LINE1":"1 46541U 20070K   22242.85047442 -.00000946  00000-0 -44603-4 0  9997","REF_FRAME":"TEME"},{"CENTER_NAME":"EARTH","EPHEMERIS_TYPE":"0","MEAN_MOTION_DDOT":"0.0000000000000","GP_ID":"211326795","RA_OF_ASC_NODE":"195.8433","MEAN_ELEMENT_THEORY":"SGP4","ELEMENT_SET_NO":"999","DECAY_DATE":null,"FILE":"3551880","BSTAR":"-0.00009600200000","NORAD_CAT_ID":"46542","INCLINATION":"53.0548","REF_FRAME":"TEME","TLE_LINE1":"1 46542U 20070L   22242.32154946 -.00001711  00000-0 -96002-4 0  9999","APOAPSIS":"548.455","SEMIMAJOR_AXIS":"6925.342","EPOCH":"2022-08-30T07:43:01.873344","TIME_SYSTEM":"UTC","REV_AT_EPOCH":"10546","MEAN_MOTION":"15.06402039","ECCENTRICITY":"0.00018010","CLASSIFICATION_TYPE":"U","PERIOD":"95.592","ARG_OF_PERICENTER":"67.6471","OBJECT_ID":"2020-070L","OBJECT_NAME":"STARLINK-1692","SITE":"AFETR","TLE_LINE2":"2 46542  53.0548 195.8433 0001801  67.6471 292.4709 15.06402039105461","OBJECT_TYPE":"PAYLOAD","COUNTRY_CODE":"US","RCS_SIZE":"LARGE","LAUNCH_DATE":"2020-10-06","PERIAPSIS":"545.960","MEAN_MOTION_DOT":"-0.00001711","MEAN_ANOMALY":"292.4709"},{"TIME_SYSTEM":"UTC","REV_AT_EPOCH":"10557","MEAN_MOTION":"15.06394766","ECCENTRICITY":"0.00016430","OBJECT_ID":"2020-070M","OBJECT_NAME":"STARLINK-1693","PERIOD":"95.592","ARG_OF_PERICENTER":"70.0125","CLASSIFICATION_TYPE":"U","TLE_LINE2":"2 46543  53.0551 193.2231 0001643  70.0125 290.1040 15.06394766105574","SITE":"AFETR","COUNTRY_CODE":"US","OBJECT_TYPE":"PAYLOAD","MEAN_ANOMALY":"290.1040","MEAN_MOTION_DOT":"0.00001479","LAUNCH_DATE":"2020-10-06","PERIAPSIS":"546.092","RCS_SIZE":"LARGE","MEAN_MOTION_DDOT":"0.0000000000000","GP_ID":"211337425","EPHEMERIS_TYPE":"0","CENTER_NAME":"EARTH","MEAN_ELEMENT_THEORY":"SGP4","RA_OF_ASC_NODE":"193.2231","DECAY_DATE":null,"FILE":"3552135","ELEMENT_SET_NO":"999","INCLINATION":"53.0551","BSTAR":"0.00011816000000","NORAD_CAT_ID":"46543","REF_FRAME":"TEME","TLE_LINE1":"1 46543U 20070M   22242.90390580  .00001479  00000-0  11816-3 0  9998","APOAPSIS":"548.367","EPOCH":"2022-08-30T21:41:37.461120","SEMIMAJOR_AXIS":"6925.365"},{"TIME_SYSTEM":"UTC","REV_AT_EPOCH":"10575","MEAN_MOTION":"15.06399475","ECCENTRICITY":"0.00018020","CLASSIFICATION_TYPE":"U","PERIOD":"95.592","ARG_OF_PERICENTER":"71.9786","OBJECT_ID":"2020-070N","OBJECT_NAME":"STARLINK-1694","SITE":"AFETR","TLE_LINE2":"2 46544  53.0549 178.5531 0001802  71.9786 288.1399 15.06399475105757","OBJECT_TYPE":"PAYLOAD","COUNTRY_CODE":"US","RCS_SIZE":"LARGE","MEAN_MOTION_DOT":"-0.00000855","LAUNCH_DATE":"2020-10-06","PERIAPSIS":"545.967","MEAN_ANOMALY":"288.1399","CENTER_NAME":"EARTH","EPHEMERIS_TYPE":"0","MEAN_MOTION_DDOT":"0.0000000000000","GP_ID":"211358507","MEAN_ELEMENT_THEORY":"SGP4","RA_OF_ASC_NODE":"178.5531","ELEMENT_SET_NO":"999","FILE":"3552179","DECAY_DATE":null,"NORAD_CAT_ID":"46544","BSTAR":"-0.00003847600000","INCLINATION":"53.0549","REF_FRAME":"TEME","TLE_LINE1":"1 46544U 20070N   22242.83341713 -.00000855  00000-0 -38476-4 0  9996","APOAPSIS":"548.463","SEMIMAJOR_AXIS":"6925.350","EPOCH":"2022-08-30T20:00:07.240032"}];
